ONEWEB-0414             
1 50491U 21132Y   25278.30125212  .00000059  00000+0  11710-3 0  9994
2 50491  87.9227  26.0464 0001603  96.6672 263.4642 13.18686360188033
ONEWEB-0417             
1 50492U 21132Z   25278.53712953  .00000054  00000+0  10509-3 0  9994
2 50492  87.9225  26.0329 0001960  95.5324 264.6031 13.18686408188049
ONEWEB-0418             
1 50493U 21132AA  25278.39514119  .00000044  00000+0  79829-4 0  9993
2 50493  87.9226  26.0466 0002149  90.1191 270.0188 13.18686818188089
ONEWEB-0419             
1 50494U 21132AB  25278.33754326  .00000021  00000+0  21112-4 0  9991
2 50494  87.9221  26.0583 0002088 100.6100 259.5267 13.18687672187992
ONEWEB-0420             
1 50495U 21132AC  25278.30290208  .00000090  00000+0  19584-3 0  9998
2 50495  87.9223  26.0759 0001619 111.7737 248.3568 13.18686218187982
ONEWEB-0421             
1 50496U 21132AD  25278.29629992  .00000081  00000+0  17338-3 0  9998
2 50496  87.9226  26.0709 0001520  94.9901 265.1405 13.18687591188025
ONEWEB-0424             
1 50497U 21132AE  25278.33258266  .00000003  00000+0 -25185-4 0  9991
2 50497  87.9231  26.0590 0002164 104.2104 255.9268 13.18687934188053
ONEWEB-0426             
1 50498U 21132AF  25278.29301051 -.00000016  00000+0 -72985-4 0  9993
2 50498  87.9224  26.0583 0001721  77.8295 282.3030 13.18686552187990
