<?xml version="1.0" encoding="UTF-8"?>
<ndm xmlns:xsi="http://www.w3.org/2001/XMLSchema-instance" xsi:noNamespaceSchemaLocation="https://sanaregistry.org/r/ndmxml_unqualified/ndmxml-2.0.0-master-2.0.xsd">
<omm id="CCSDS_OMM_VERS" version="2.0">
<header><CREATION_DATE/><ORIGINATOR/></header><body><segment><metadata><OBJECT_NAME>ONEWEB-0414</OBJECT_NAME><OBJECT_ID>2021-132Y</OBJECT_ID><CENTER_NAME>EARTH</CENTER_NAME><REF_FRAME>TEME</REF_FRAME><TIME_SYSTEM>UTC</TIME_SYSTEM><MEAN_ELEMENT_THEORY>SGP4</MEAN_ELEMENT_THEORY></metadata><data><meanElements><EPOCH>2025-10-05T07:13:48.183168</EPOCH><MEAN_MOTION>13.18686360</MEAN_MOTION><ECCENTRICITY>.0001603</ECCENTRICITY><INCLINATION>87.9227</INCLINATION><RA_OF_ASC_NODE>26.0464</RA_OF_ASC_NODE><ARG_OF_PERICENTER>96.6672</ARG_OF_PERICENTER><MEAN_ANOMALY>263.4642</MEAN_ANOMALY></meanElements><tleParameters><EPHEMERIS_TYPE>0</EPHEMERIS_TYPE><CLASSIFICATION_TYPE>U</CLASSIFICATION_TYPE><NORAD_CAT_ID>50491</NORAD_CAT_ID><ELEMENT_SET_NO>999</ELEMENT_SET_NO><REV_AT_EPOCH>18803</REV_AT_EPOCH><BSTAR>.1171E-3</BSTAR><MEAN_MOTION_DOT>.59E-6</MEAN_MOTION_DOT><MEAN_MOTION_DDOT>0</MEAN_MOTION_DDOT></tleParameters></data></segment></body></omm>
<omm id="CCSDS_OMM_VERS" version="2.0">
<header><CREATION_DATE/><ORIGINATOR/></header><body><segment><metadata><OBJECT_NAME>ONEWEB-0417</OBJECT_NAME><OBJECT_ID>2021-132Z</OBJECT_ID><CENTER_NAME>EARTH</CENTER_NAME><REF_FRAME>TEME</REF_FRAME><TIME_SYSTEM>UTC</TIME_SYSTEM><MEAN_ELEMENT_THEORY>SGP4</MEAN_ELEMENT_THEORY></metadata><data><meanElements><EPOCH>2025-10-05T12:53:27.991392</EPOCH><MEAN_MOTION>13.18686408</MEAN_MOTION><ECCENTRICITY>.000196</ECCENTRICITY><INCLINATION>87.9225</INCLINATION><RA_OF_ASC_NODE>26.0329</RA_OF_ASC_NODE><ARG_OF_PERICENTER>95.5324</ARG_OF_PERICENTER><MEAN_ANOMALY>264.6031</MEAN_ANOMALY></meanElements><tleParameters><EPHEMERIS_TYPE>0</EPHEMERIS_TYPE><CLASSIFICATION_TYPE>U</CLASSIFICATION_TYPE><NORAD_CAT_ID>50492</NORAD_CAT_ID><ELEMENT_SET_NO>999</ELEMENT_SET_NO><REV_AT_EPOCH>18804</REV_AT_EPOCH><BSTAR>.10509E-3</BSTAR><MEAN_MOTION_DOT>.54E-6</MEAN_MOTION_DOT><MEAN_MOTION_DDOT>0</MEAN_MOTION_DDOT></tleParameters></data></segment></body></omm>
<omm id="CCSDS_OMM_VERS" version="2.0">
<header><CREATION_DATE/><ORIGINATOR/></header><body><segment><metadata><OBJECT_NAME>ONEWEB-0418</OBJECT_NAME><OBJECT_ID>2021-132AA</OBJECT_ID><CENTER_NAME>EARTH</CENTER_NAME><REF_FRAME>TEME</REF_FRAME><TIME_SYSTEM>UTC</TIME_SYSTEM><MEAN_ELEMENT_THEORY>SGP4</MEAN_ELEMENT_THEORY></metadata><data><meanElements><EPOCH>2025-10-05T09:29:00.198816</EPOCH><MEAN_MOTION>13.18686818</MEAN_MOTION><ECCENTRICITY>.0002149</ECCENTRICITY><INCLINATION>87.9226</INCLINATION><RA_OF_ASC_NODE>26.0466</RA_OF_ASC_NODE><ARG_OF_PERICENTER>90.1191</ARG_OF_PERICENTER><MEAN_ANOMALY>270.0188</MEAN_ANOMALY></meanElements><tleParameters><EPHEMERIS_TYPE>0</EPHEMERIS_TYPE><CLASSIFICATION_TYPE>U</CLASSIFICATION_TYPE><NORAD_CAT_ID>50493</NORAD_CAT_ID><ELEMENT_SET_NO>999</ELEMENT_SET_NO><REV_AT_EPOCH>18808</REV_AT_EPOCH><BSTAR>.79829E-4</BSTAR><MEAN_MOTION_DOT>.44E-6</MEAN_MOTION_DOT><MEAN_MOTION_DDOT>0</MEAN_MOTION_DDOT></tleParameters></data></segment></body></omm>
<omm id="CCSDS_OMM_VERS" version="2.0">
<header><CREATION_DATE/><ORIGINATOR/></header><body><segment><metadata><OBJECT_NAME>ONEWEB-0419</OBJECT_NAME><OBJECT_ID>2021-132AB</OBJECT_ID><CENTER_NAME>EARTH</CENTER_NAME><REF_FRAME>TEME</REF_FRAME><TIME_SYSTEM>UTC</TIME_SYSTEM><MEAN_ELEMENT_THEORY>SGP4</MEAN_ELEMENT_THEORY></metadata><data><meanElements><EPOCH>2025-10-05T08:06:03.737664</EPOCH><MEAN_MOTION>13.18687672</MEAN_MOTION><ECCENTRICITY>.0002088</ECCENTRICITY><INCLINATION>87.9221</INCLINATION><RA_OF_ASC_NODE>26.0583</RA_OF_ASC_NODE><ARG_OF_PERICENTER>100.6100</ARG_OF_PERICENTER><MEAN_ANOMALY>259.5267</MEAN_ANOMALY></meanElements><tleParameters><EPHEMERIS_TYPE>0</EPHEMERIS_TYPE><CLASSIFICATION_TYPE>U</CLASSIFICATION_TYPE><NORAD_CAT_ID>50494</NORAD_CAT_ID><ELEMENT_SET_NO>999</ELEMENT_SET_NO><REV_AT_EPOCH>18799</REV_AT_EPOCH><BSTAR>.21112E-4</BSTAR><MEAN_MOTION_DOT>.21E-6</MEAN_MOTION_DOT><MEAN_MOTION_DDOT>0</MEAN_MOTION_DDOT></tleParameters></data></segment></body></omm>
<omm id="CCSDS_OMM_VERS" version="2.0">
<header><CREATION_DATE/><ORIGINATOR/></header><body><segment><metadata><OBJECT_NAME>ONEWEB-0420</OBJECT_NAME><OBJECT_ID>2021-132AC</OBJECT_ID><CENTER_NAME>EARTH</CENTER_NAME><REF_FRAME>TEME</REF_FRAME><TIME_SYSTEM>UTC</TIME_SYSTEM><MEAN_ELEMENT_THEORY>SGP4</MEAN_ELEMENT_THEORY></metadata><data><meanElements><EPOCH>2025-10-05T07:16:10.739712</EPOCH><MEAN_MOTION>13.18686218</MEAN_MOTION><ECCENTRICITY>.0001619</ECCENTRICITY><INCLINATION>87.9223</INCLINATION><RA_OF_ASC_NODE>26.0759</RA_OF_ASC_NODE><ARG_OF_PERICENTER>111.7737</ARG_OF_PERICENTER><MEAN_ANOMALY>248.3568</MEAN_ANOMALY></meanElements><tleParameters><EPHEMERIS_TYPE>0</EPHEMERIS_TYPE><CLASSIFICATION_TYPE>U</CLASSIFICATION_TYPE><NORAD_CAT_ID>50495</NORAD_CAT_ID><ELEMENT_SET_NO>999</ELEMENT_SET_NO><REV_AT_EPOCH>18798</REV_AT_EPOCH><BSTAR>.19584E-3</BSTAR><MEAN_MOTION_DOT>.9E-6</MEAN_MOTION_DOT><MEAN_MOTION_DDOT>0</MEAN_MOTION_DDOT></tleParameters></data></segment></body></omm>
<omm id="CCSDS_OMM_VERS" version="2.0">
<header><CREATION_DATE/><ORIGINATOR/></header><body><segment><metadata><OBJECT_NAME>ONEWEB-0421</OBJECT_NAME><OBJECT_ID>2021-132AD</OBJECT_ID><CENTER_NAME>EARTH</CENTER_NAME><REF_FRAME>TEME</REF_FRAME><TIME_SYSTEM>UTC</TIME_SYSTEM><MEAN_ELEMENT_THEORY>SGP4</MEAN_ELEMENT_THEORY></metadata><data><meanElements><EPOCH>2025-10-05T07:06:40.313088</EPOCH><MEAN_MOTION>13.18687591</MEAN_MOTION><ECCENTRICITY>.000152</ECCENTRICITY><INCLINATION>87.9226</INCLINATION><RA_OF_ASC_NODE>26.0709</RA_OF_ASC_NODE><ARG_OF_PERICENTER>94.9901</ARG_OF_PERICENTER><MEAN_ANOMALY>265.1405</MEAN_ANOMALY></meanElements><tleParameters><EPHEMERIS_TYPE>0</EPHEMERIS_TYPE><CLASSIFICATION_TYPE>U</CLASSIFICATION_TYPE><NORAD_CAT_ID>50496</NORAD_CAT_ID><ELEMENT_SET_NO>999</ELEMENT_SET_NO><REV_AT_EPOCH>18802</REV_AT_EPOCH><BSTAR>.17338E-3</BSTAR><MEAN_MOTION_DOT>.81E-6</MEAN_MOTION_DOT><MEAN_MOTION_DDOT>0</MEAN_MOTION_DDOT></tleParameters></data></segment></body></omm>
<omm id="CCSDS_OMM_VERS" version="2.0">
<header><CREATION_DATE/><ORIGINATOR/></header><body><segment><metadata><OBJECT_NAME>ONEWEB-0424</OBJECT_NAME><OBJECT_ID>2021-132AE</OBJECT_ID><CENTER_NAME>EARTH</CENTER_NAME><REF_FRAME>TEME</REF_FRAME><TIME_SYSTEM>UTC</TIME_SYSTEM><MEAN_ELEMENT_THEORY>SGP4</MEAN_ELEMENT_THEORY></metadata><data><meanElements><EPOCH>2025-10-05T07:58:55.141824</EPOCH><MEAN_MOTION>13.18687934</MEAN_MOTION><ECCENTRICITY>.0002164</ECCENTRICITY><INCLINATION>87.9231</INCLINATION><RA_OF_ASC_NODE>26.0590</RA_OF_ASC_NODE><ARG_OF_PERICENTER>104.2104</ARG_OF_PERICENTER><MEAN_ANOMALY>255.9268</MEAN_ANOMALY></meanElements><tleParameters><EPHEMERIS_TYPE>0</EPHEMERIS_TYPE><CLASSIFICATION_TYPE>U</CLASSIFICATION_TYPE><NORAD_CAT_ID>50497</NORAD_CAT_ID><ELEMENT_SET_NO>999</ELEMENT_SET_NO><REV_AT_EPOCH>18805</REV_AT_EPOCH><BSTAR>-.25185E-4</BSTAR><MEAN_MOTION_DOT>.3E-7</MEAN_MOTION_DOT><MEAN_MOTION_DDOT>0</MEAN_MOTION_DDOT></tleParameters></data></segment></body></omm>
<omm id="CCSDS_OMM_VERS" version="2.0">
<header><CREATION_DATE/><ORIGINATOR/></header><body><segment><metadata><OBJECT_NAME>ONEWEB-0426</OBJECT_NAME><OBJECT_ID>2021-132AF</OBJECT_ID><CENTER_NAME>EARTH</CENTER_NAME><REF_FRAME>TEME</REF_FRAME><TIME_SYSTEM>UTC</TIME_SYSTEM><MEAN_ELEMENT_THEORY>SGP4</MEAN_ELEMENT_THEORY></metadata><data><meanElements><EPOCH>2025-10-05T07:01:56.108064</EPOCH><MEAN_MOTION>13.18686552</MEAN_MOTION><ECCENTRICITY>.0001721</ECCENTRICITY><INCLINATION>87.9224</INCLINATION><RA_OF_ASC_NODE>26.0583</RA_OF_ASC_NODE><ARG_OF_PERICENTER>77.8295</ARG_OF_PERICENTER><MEAN_ANOMALY>282.3030</MEAN_ANOMALY></meanElements><tleParameters><EPHEMERIS_TYPE>0</EPHEMERIS_TYPE><CLASSIFICATION_TYPE>U</CLASSIFICATION_TYPE><NORAD_CAT_ID>50498</NORAD_CAT_ID><ELEMENT_SET_NO>999</ELEMENT_SET_NO><REV_AT_EPOCH>18799</REV_AT_EPOCH><BSTAR>-.72985E-4</BSTAR><MEAN_MOTION_DOT>-.16E-6</MEAN_MOTION_DOT><MEAN_MOTION_DDOT>0</MEAN_MOTION_DDOT></tleParameters></data></segment></body></omm>

</ndm>
